[{"OBJECT_NAME":"STARLINK-2519","OBJECT_ID":"2021-036AF","EPOCH":"2025-08-12T12:13:02.869536","MEAN_MOTION":15.0636576,"ECCENTRICITY":0.000155,"INCLINATION":53.0546,"RA_OF_ASC_NODE":311.2474,"ARG_OF_PERICENTER":136.9586,"MEAN_ANOMALY":223.1524,"EPHEMERIS_TYPE":0,"CLASSIFICATION_TYPE":"U","NORAD_CAT_ID":48305,"ELEMENT_SET_NO":999,"REV_AT_EPOCH":23722,"BSTAR":-0.0010606,"MEAN_MOTION_DOT":-0.00016029,"MEAN_MOTION_DDOT":0},{"OBJECT_NAME":"STARLINK-2523","OBJECT_ID":"2021-036AG","EPOCH":"2025-08-11T23:39:17.982720","MEAN_MOTION":15.06397639,"ECCENTRICITY":0.0001208,"INCLINATION":53.0549,"RA_OF_ASC_NODE":313.0211,"ARG_OF_PERICENTER":98.6528,"MEAN_ANOMALY":261.4598,"EPHEMERIS_TYPE":0,"CLASSIFICATION_TYPE":"U","NORAD_CAT_ID":48306,"ELEMENT_SET_NO":999,"REV_AT_EPOCH":23715,"BSTAR":0.0010901,"MEAN_MOTION_DOT":0.00015992,"MEAN_MOTION_DDOT":0},{"OBJECT_NAME":"STARLINK-2517","OBJECT_ID":"2021-036AK","EPOCH":"2025-08-12T05:45:30.748608","MEAN_MOTION":15.06398797,"ECCENTRICITY":0.0001216,"INCLINATION":53.0543,"RA_OF_ASC_NODE":311.8787,"ARG_OF_PERICENTER":77.4823,"MEAN_ANOMALY":282.6302,"EPHEMERIS_TYPE":0,"CLASSIFICATION_TYPE":"U","NORAD_CAT_ID":48309,"ELEMENT_SET_NO":999,"REV_AT_EPOCH":23719,"BSTAR":0.0002884,"MEAN_MOTION_DOT":4.017e-5,"MEAN_MOTION_DDOT":0},{"OBJECT_NAME":"STARLINK-2536","OBJECT_ID":"2021-036AL","EPOCH":"2025-08-12T05:40:11.987040","MEAN_MOTION":15.06398096,"ECCENTRICITY":0.0001063,"INCLINATION":53.054,"RA_OF_ASC_NODE":311.8955,"ARG_OF_PERICENTER":101.1312,"MEAN_ANOMALY":258.9796,"EPHEMERIS_TYPE":0,"CLASSIFICATION_TYPE":"U","NORAD_CAT_ID":48310,"ELEMENT_SET_NO":999,"REV_AT_EPOCH":23719,"BSTAR":0.00030543,"MEAN_MOTION_DOT":4.271e-5,"MEAN_MOTION_DDOT":0},{"OBJECT_NAME":"STARLINK-2534","OBJECT_ID":"2021-036AM","EPOCH":"2025-08-11T12:03:57.549024","MEAN_MOTION":15.06394726,"ECCENTRICITY":0.0001408,"INCLINATION":53.0557,"RA_OF_ASC_NODE":315.1891,"ARG_OF_PERICENTER":96.6805,"MEAN_ANOMALY":263.4345,"EPHEMERIS_TYPE":0,"CLASSIFICATION_TYPE":"U","NORAD_CAT_ID":48311,"ELEMENT_SET_NO":999,"REV_AT_EPOCH":23649,"BSTAR":4.6922e-5,"MEAN_MOTION_DOT":4.17e-6,"MEAN_MOTION_DDOT":0},{"OBJECT_NAME":"STARLINK-2061","OBJECT_ID":"2021-036AN","EPOCH":"2025-08-12T11:51:45.998496","MEAN_MOTION":15.06398799,"ECCENTRICITY":0.0001397,"INCLINATION":53.0551,"RA_OF_ASC_NODE":310.7374,"ARG_OF_PERICENTER":98.3679,"MEAN_ANOMALY":261.7469,"EPHEMERIS_TYPE":0,"CLASSIFICATION_TYPE":"U","NORAD_CAT_ID":48312,"ELEMENT_SET_NO":999,"REV_AT_EPOCH":23728,"BSTAR":0.00052223,"MEAN_MOTION_DOT":7.505e-5,"MEAN_MOTION_DDOT":0},{"OBJECT_NAME":"STARLINK-2549","OBJECT_ID":"2021-036AQ","EPOCH":"2025-08-12T10:05:35.581344","MEAN_MOTION":15.06389784,"ECCENTRICITY":0.0001256,"INCLINATION":53.0546,"RA_OF_ASC_NODE":311.0668,"ARG_OF_PERICENTER":74.7654,"MEAN_ANOMALY":285.3474,"EPHEMERIS_TYPE":0,"CLASSIFICATION_TYPE":"U","NORAD_CAT_ID":48314,"ELEMENT_SET_NO":999,"REV_AT_EPOCH":23727,"BSTAR":0.00017863,"MEAN_MOTION_DOT":2.38e-5,"MEAN_MOTION_DDOT":0},{"OBJECT_NAME":"STARLINK-2506","OBJECT_ID":"2021-036AR","EPOCH":"2025-08-12T10:00:17.573184","MEAN_MOTION":15.06393029,"ECCENTRICITY":0.0001315,"INCLINATION":53.055,"RA_OF_ASC_NODE":311.0846,"ARG_OF_PERICENTER":72.0461,"MEAN_ANOMALY":288.0672,"EPHEMERIS_TYPE":0,"CLASSIFICATION_TYPE":"U","NORAD_CAT_ID":48315,"ELEMENT_SET_NO":999,"REV_AT_EPOCH":23727,"BSTAR":0.00030122,"MEAN_MOTION_DOT":4.207e-5,"MEAN_MOTION_DDOT":0},{"OBJECT_NAME":"STARLINK-2507","OBJECT_ID":"2021-036AS","EPOCH":"2025-08-12T05:08:21.586272","MEAN_MOTION":15.06388968,"ECCENTRICITY":0.0001086,"INCLINATION":53.0549,"RA_OF_ASC_NODE":311.995,"ARG_OF_PERICENTER":106.9897,"MEAN_ANOMALY":253.1211,"EPHEMERIS_TYPE":0,"CLASSIFICATION_TYPE":"U","NORAD_CAT_ID":48316,"ELEMENT_SET_NO":999,"REV_AT_EPOCH":23724,"BSTAR":0.00025645,"MEAN_MOTION_DOT":3.539e-5,"MEAN_MOTION_DDOT":0},{"OBJECT_NAME":"STARLINK-2513","OBJECT_ID":"2021-036AT","EPOCH":"2025-08-12T09:49:40.217664","MEAN_MOTION":15.06390332,"ECCENTRICITY":0.0001222,"INCLINATION":53.0549,"RA_OF_ASC_NODE":311.1202,"ARG_OF_PERICENTER":91.9956,"MEAN_ANOMALY":268.1173,"EPHEMERIS_TYPE":0,"CLASSIFICATION_TYPE":"U","NORAD_CAT_ID":48317,"ELEMENT_SET_NO":999,"REV_AT_EPOCH":23727,"BSTAR":0.00015553,"MEAN_MOTION_DOT":2.035e-5,"MEAN_MOTION_DDOT":0},{"OBJECT_NAME":"STARLINK-2509","OBJECT_ID":"2021-036AU","EPOCH":"2025-08-11T14:31:15.482784","MEAN_MOTION":15.06392869,"ECCENTRICITY":0.0001155,"INCLINATION":53.0558,"RA_OF_ASC_NODE":324.7241,"ARG_OF_PERICENTER":83.8376,"MEAN_ANOMALY":276.2744,"EPHEMERIS_TYPE":0,"CLASSIFICATION_TYPE":"U","NORAD_CAT_ID":48318,"ELEMENT_SET_NO":999,"REV_AT_EPOCH":23636,"BSTAR":0.00023284,"MEAN_MOTION_DOT":3.188e-5,"MEAN_MOTION_DDOT":0},{"OBJECT_NAME":"STARLINK-2512","OBJECT_ID":"2021-036AV","EPOCH":"2025-08-12T06:19:58.827648","MEAN_MOTION":15.06389621,"ECCENTRICITY":0.0001037,"INCLINATION":53.0548,"RA_OF_ASC_NODE":321.7598,"ARG_OF_PERICENTER":74.71,"MEAN_ANOMALY":285.4004,"EPHEMERIS_TYPE":0,"CLASSIFICATION_TYPE":"U","NORAD_CAT_ID":48319,"ELEMENT_SET_NO":999,"REV_AT_EPOCH":23710,"BSTAR":0.00028103,"MEAN_MOTION_DOT":3.906e-5,"MEAN_MOTION_DDOT":0},{"OBJECT_NAME":"STARLINK-2029","OBJECT_ID":"2021-036AW","EPOCH":"2025-08-12T06:16:01.858368","MEAN_MOTION":15.06393254,"ECCENTRICITY":0.0001035,"INCLINATION":53.0554,"RA_OF_ASC_NODE":321.7825,"ARG_OF_PERICENTER":65.4506,"MEAN_ANOMALY":294.6591,"EPHEMERIS_TYPE":0,"CLASSIFICATION_TYPE":"U","NORAD_CAT_ID":48320,"ELEMENT_SET_NO":999,"REV_AT_EPOCH":23710,"BSTAR":0.00023194,"MEAN_MOTION_DOT":3.174e-5,"MEAN_MOTION_DDOT":0},{"OBJECT_NAME":"STARLINK-2457","OBJECT_ID":"2021-036AX","EPOCH":"2025-08-12T12:32:54.087936","MEAN_MOTION":15.06406819,"ECCENTRICITY":0.0001239,"INCLINATION":53.056,"RA_OF_ASC_NODE":320.6099,"ARG_OF_PERICENTER":79.6147,"MEAN_ANOMALY":280.4981,"EPHEMERIS_TYPE":0,"CLASSIFICATION_TYPE":"U","NORAD_CAT_ID":48321,"ELEMENT_SET_NO":999,"REV_AT_EPOCH":23709,"BSTAR":0.0013438,"MEAN_MOTION_DOT":0.00019795,"MEAN_MOTION_DDOT":0},{"OBJECT_NAME":"STARLINK-2515","OBJECT_ID":"2021-036AZ","EPOCH":"2025-08-11T14:04:43.109184","MEAN_MOTION":15.06392416,"ECCENTRICITY":0.0001124,"INCLINATION":53.0554,"RA_OF_ASC_NODE":324.8107,"ARG_OF_PERICENTER":98.6141,"MEAN_ANOMALY":261.4975,"EPHEMERIS_TYPE":0,"CLASSIFICATION_TYPE":"U","NORAD_CAT_ID":48323,"ELEMENT_SET_NO":999,"REV_AT_EPOCH":23695,"BSTAR":-1.5443e-5,"MEAN_MOTION_DOT":-5.11e-6,"MEAN_MOTION_DDOT":0},{"OBJECT_NAME":"STARLINK-2495","OBJECT_ID":"2021-036BB","EPOCH":"2025-08-12T12:11:39.477984","MEAN_MOTION":15.06389805,"ECCENTRICITY":0.0001199,"INCLINATION":53.0551,"RA_OF_ASC_NODE":320.6751,"ARG_OF_PERICENTER":99.0205,"MEAN_ANOMALY":261.092,"EPHEMERIS_TYPE":0,"CLASSIFICATION_TYPE":"U","NORAD_CAT_ID":48325,"ELEMENT_SET_NO":999,"REV_AT_EPOCH":23709,"BSTAR":0.00025251,"MEAN_MOTION_DOT":3.481e-5,"MEAN_MOTION_DDOT":0}]
