STARLINK-2519           
1 48305U 21036AF  25224.50906099 -.00016029  00000+0 -10606-2 0  9999
2 48305  53.0546 311.2474 0001550 136.9586 223.1524 15.06365760237220
STARLINK-2523           
1 48306U 21036AG  25223.98562480  .00015992  00000+0  10901-2 0  9997
2 48306  53.0549 313.0211 0001208  98.6528 261.4598 15.06397639237151
STARLINK-2517           
1 48309U 21036AK  25224.23993922  .00004017  00000+0  28840-3 0  9996
2 48309  53.0543 311.8787 0001216  77.4823 282.6302 15.06398797237192
STARLINK-2536           
1 48310U 21036AL  25224.23624985  .00004271  00000+0  30543-3 0  9993
2 48310  53.0540 311.8955 0001063 101.1312 258.9796 15.06398096237191
STARLINK-2534           
1 48311U 21036AM  25223.50274941  .00000417  00000+0  46922-4 0  9993
2 48311  53.0557 315.1891 0001408  96.6805 263.4345 15.06394726236493
STARLINK-2061           
1 48312U 21036AN  25224.49428239  .00007505  00000+0  52223-3 0  9999
2 48312  53.0551 310.7374 0001397  98.3679 261.7469 15.06398799237280
STARLINK-2549           
1 48314U 21036AQ  25224.42055071  .00002380  00000+0  17863-3 0  9991
2 48314  53.0546 311.0668 0001256  74.7654 285.3474 15.06389784237272
STARLINK-2506           
1 48315U 21036AR  25224.41687006  .00004207  00000+0  30122-3 0  9993
2 48315  53.0550 311.0846 0001315  72.0461 288.0672 15.06393029237276
STARLINK-2507           
1 48316U 21036AS  25224.21413873  .00003539  00000+0  25645-3 0  9992
2 48316  53.0549 311.9950 0001086 106.9897 253.1211 15.06388968237240
STARLINK-2513           
1 48317U 21036AT  25224.40949326  .00002035  00000+0  15553-3 0  9998
2 48317  53.0549 311.1202 0001222  91.9956 268.1173 15.06390332237278
STARLINK-2509           
1 48318U 21036AU  25223.60504031  .00003188  00000+0  23284-3 0  9990
2 48318  53.0558 324.7241 0001155  83.8376 276.2744 15.06392869236363
STARLINK-2512           
1 48319U 21036AV  25224.26387532  .00003906  00000+0  28103-3 0  9992
2 48319  53.0548 321.7598 0001037  74.7100 285.4004 15.06389621237104
STARLINK-2029           
1 48320U 21036AW  25224.26113262  .00003174  00000+0  23194-3 0  9993
2 48320  53.0554 321.7825 0001035  65.4506 294.6591 15.06393254237101
STARLINK-2457           
1 48321U 21036AX  25224.52284824  .00019795  00000+0  13438-2 0  9991
2 48321  53.0560 320.6099 0001239  79.6147 280.4981 15.06406819237090
STARLINK-2515           
1 48323U 21036AZ  25223.58661006 -.00000511  00000+0 -15443-4 0  9997
2 48323  53.0554 324.8107 0001124  98.6141 261.4975 15.06392416236952
STARLINK-2495           
1 48325U 21036BB  25224.50809581  .00003481  00000+0  25251-3 0  9998
2 48325  53.0551 320.6751 0001199  99.0205 261.0920 15.06389805237098
